NORAD_CAT_ID,OBJECT_NAME,OBJECT_TYPE,EPOCH,MEAN_MOTION,ECCENTRICITY,INCLINATION,RA_OF_ASC_NODE,ARG_OF_PERICENTER,MEAN_ANOMALY,BSTAR,MEAN_MOTION_DOT,MEAN_MOTION_DDOT,TLE_LINE0,TLE_LINE1,TLE_LINE2,SEMIMAJOR_AXIS,PERIOD,APOGEE,PERIGEE,DECAYED
52855.0,STARLINK-4209,PAYLOAD,2024-03-13 07:11:46,15.08841546,0.0001769,53.2182,45.0086,91.214,268.9054,0.00025623,3.792e-05,0.0,0 STARLINK-4209,1 52855U 22062AB  24073.29984508  .00003792  00000-0  25623-3 0  9990,2 52855  53.2182  45.0086 0001769  91.2140 268.9054 15.08841546 96754,6917.876,95.437,540.964,538.517,0.0
52855.0,STARLINK-4209,PAYLOAD,2024-03-13 15:08:41,15.08853861,0.0001807,53.2191,43.5193,87.6831,272.4368,0.00047871,7.342e-05,0.0,0 STARLINK-4209,1 52855U 22062AB  24073.63104088  .00007342  00000-0  47871-3 0  9999,2 52855  53.2191  43.5193 0001807  87.6831 272.4368 15.08853861 96802,6917.838,95.437,540.953,538.453,0.0
52855.0,STARLINK-4209,PAYLOAD,2024-03-14 05:27:10,15.08844887,0.0001505,53.2178,40.8456,90.5356,269.5808,0.00018639,2.68e-05,0.0,0 STARLINK-4209,1 52855U 22062AB  24074.22720222  .00002680  00000-0  18639-3 0  9999,2 52855  53.2178  40.8456 0001505  90.5356 269.5808 15.08844887 96892,6917.865,95.437,540.772,538.689,0.0
52855.0,STARLINK-4209,PAYLOAD,2024-03-14 21:21:01,15.08846168,0.0001511,53.2158,37.8734,89.0707,271.0459,0.00026041,3.86e-05,0.0,0 STARLINK-4209,1 52855U 22062AB  24074.88960259  .00003860  00000-0  26041-3 0  9994,2 52855  53.2158  37.8734 0001511  89.0707 271.0459 15.08846168 96507,6917.862,95.437,540.772,538.681,0.0
52855.0,STARLINK-4209,PAYLOAD,2024-03-15 03:42:34,15.08840595,0.0001449,53.2168,36.6823,89.421,270.6948,0.00012571,1.713e-05,0.0,0 STARLINK-4209,1 52855U 22062AB  24075.15456469  .00001713  00000-0  12571-3 0  9996,2 52855  53.2168  36.6823 0001449  89.4210 270.6948 15.08840595 97032,6917.879,95.438,540.746,538.741,0.0
52855.0,STARLINK-4209,PAYLOAD,2024-03-16 06:44:07,15.08844678,0.000153,53.2176,31.6264,95.7451,264.3716,0.00022122,3.235e-05,0.0,0 STARLINK-4209,1 52855U 22062AB  24076.28064502  .00003235  00000-0  22122-3 0  9998,2 52855  53.2176  31.6264 0001530  95.7451 264.3716 15.08844678 97201,6917.866,95.437,540.79,538.673,0.0
52855.0,STARLINK-4209,PAYLOAD,2024-03-17 01:48:45,15.08840636,0.0001766,53.2183,28.0573,119.2943,240.8225,0.00014452,2.013e-05,0.0,0 STARLINK-4209,1 52855U 22062AB  24077.07552570  .00002013  00000-0  14452-3 0  9993,2 52855  53.2183  28.0573 0001766 119.2943 240.8225 15.08840636 97328,6917.878,95.438,540.965,538.522,0.0
52855.0,STARLINK-4209,PAYLOAD,2024-03-17 06:34:54,15.08840488,0.0001713,53.2182,27.1653,117.1786,242.9381,0.00012157,1.647e-05,0.0,0 STARLINK-4209,1 52855U 22062AB  24077.27424567  .00001647  00000-0  12157-3 0  9991,2 52855  53.2182  27.1653 0001713 117.1786 242.9381 15.08840488 96869,6917.879,95.438,540.929,538.559,0.0
52855.0,STARLINK-4209,PAYLOAD,2024-03-18 03:14:56,15.08836371,0.0001427,53.2191,23.2977,107.0617,253.0532,9.4125e-06,-1.38e-06,0.0,0 STARLINK-4209,1 52855U 22062AB  24078.13537119 -.00000138  00000-0  94125-5 0  9997,2 52855  53.2191  23.2977 0001427 107.0617 253.0532 15.08836371 97484,6917.891,95.438,540.744,538.769,0.0
52855.0,STARLINK-4209,PAYLOAD,2024-03-19 03:05:42,15.08843045,0.0001398,53.2195,18.8437,103.8574,256.2574,0.00014177,1.969e-05,0.0,0 STARLINK-4209,1 52855U 22062AB  24079.12896658  .00001969  00000-0  14177-3 0  9992,2 52855  53.2195  18.8437 0001398 103.8574 256.2574 15.08843045 97636,6917.871,95.437,540.703,538.769,0.0
52855.0,STARLINK-4209,PAYLOAD,2024-03-19 04:41:05,15.08846366,0.0001462,53.22,18.5451,105.2362,254.8792,0.00021785,3.181e-05,0.0,0 STARLINK-4209,1 52855U 22062AB  24079.19520429  .00003181  00000-0  21785-3 0  9990,2 52855  53.2200  18.5451 0001462 105.2362 254.8792 15.08846366 97151,6917.861,95.437,540.737,538.715,0.0
52855.0,STARLINK-4209,PAYLOAD,2024-03-20 06:07:16,15.08824552,0.0001587,53.219,13.7859,54.1157,305.9983,0.00055074,8.484e-05,0.0,0 STARLINK-4209,1 52855U 22062AB  24080.25504983  .00008484  00000-0  55074-3 0  9995,2 52855  53.2190  13.7859 0001587  54.1157 305.9983 15.08824552 97805,6917.928,95.439,540.89,538.695,0.0
52855.0,STARLINK-4209,PAYLOAD,2024-03-21 12:19:34,15.08882749,0.0001033,53.219,8.1296,66.981,293.1291,-0.00058825,-9.648e-05,0.0,0 STARLINK-4209,1 52855U 22062AB  24081.51359119 -.00009648  00000-0 -58825-3 0  9996,2 52855  53.2190   8.1296 0001033  66.9810 293.1291 15.08882749 97993,6917.75,95.435,540.329,538.9,0.0
52855.0,STARLINK-4209,PAYLOAD,2024-03-21 18:41:08,15.08839378,0.0001224,53.2174,6.9461,94.8618,265.2514,6.6754e-05,7.75e-06,0.0,0 STARLINK-4209,1 52855U 22062AB  24081.77856871  .00000775  00000-0  66754-4 0  9992,2 52855  53.2174   6.9461 0001224  94.8618 265.2514 15.08839378 98037,6917.882,95.438,540.594,538.901,0.0
52855.0,STARLINK-4209,PAYLOAD,2024-03-22 02:38:03,15.0885519,0.0001337,53.2176,5.4583,117.7722,242.3406,0.0002964,4.434e-05,0.0,0 STARLINK-4209,1 52855U 22062AB  24082.10976070  .00004434  00000-0  29640-3 0  9992,2 52855  53.2176   5.4583 0001337 117.7722 242.3406 15.08855190 98085,6917.834,95.437,540.624,538.774,0.0
52855.0,STARLINK-4209,PAYLOAD,2024-03-22 21:42:42,15.08838843,0.0001436,53.2179,1.8882,102.8828,257.2324,0.00021471,3.131e-05,0.0,0 STARLINK-4209,1 52855U 22062AB  24082.90465367  .00003131  00000-0  21471-3 0  9999,2 52855  53.2179   1.8882 0001436 102.8828 257.2324 15.08838843 97711,6917.884,95.438,540.742,538.756,0.0
52855.0,STARLINK-4209,PAYLOAD,2024-03-23 00:53:28,15.0882388,0.0001209,53.2183,1.2966,79.8873,280.2256,-1.022e-05,-4.5e-06,0.0,0 STARLINK-4209,1 52855U 22062AB  24083.03714105 -.00000450  00000-0 -10220-4 0  9995,2 52855  53.2183   1.2966 0001209  79.8873 280.2256 15.08823880 98226,6917.93,95.439,540.631,538.958,0.0
52855.0,STARLINK-4209,PAYLOAD,2024-03-23 21:33:29,15.08841814,0.0001242,53.2173,357.4326,99.4822,260.631,0.00018682,2.687e-05,0.0,0 STARLINK-4209,1 52855U 22062AB  24083.89825498  .00002687  00000-0  18682-3 0  9998,2 52855  53.2173 357.4326 0001242  99.4822 260.6310 15.08841814 98354,6917.875,95.437,540.599,538.881,0.0
52855.0,STARLINK-4209,PAYLOAD,2024-03-24 03:55:01,15.08862387,0.0001516,53.2181,356.2362,113.7805,246.3347,0.00047233,7.242e-05,0.0,0 STARLINK-4209,1 52855U 22062AB  24084.16320944  .00007242  00000-0  47233-3 0  9991,2 52855  53.2181 356.2362 0001516 113.7805 246.3347 15.08862387 98398,6917.812,95.436,540.726,538.628,0.0
52855.0,STARLINK-4209,PAYLOAD,2024-03-24 22:59:38,15.08827545,0.0001803,53.2173,352.6724,35.6577,324.4536,-0.00021239,-3.666e-05,0.0,0 STARLINK-4209,1 52855U 22062AB  24084.95808939 -.00003666  00000-0 -21239-3 0  9999,2 52855  53.2173 352.6724 0001803  35.6577 324.4536 15.08827545 98023,6917.918,95.438,541.031,538.536,0.0
52855.0,STARLINK-4209,PAYLOAD,2024-03-25 03:45:47,15.08823716,0.0001289,53.2183,351.7794,85.7272,274.3867,-0.00066004,-0.00010772,0.0,0 STARLINK-4209,1 52855U 22062AB  24085.15680351 -.00010772  00000-0 -66004-3 0  9993,2 52855  53.2183 351.7794 0001289  85.7272 274.3867 15.08823716 98540,6917.93,95.439,540.687,538.903,0.0
52855.0,STARLINK-4209,PAYLOAD,2024-03-25 22:50:26,15.0881232,0.0001406,53.2183,348.2113,87.558,272.5573,-0.00040365,-6.701e-05,0.0,0 STARLINK-4209,1 52855U 22062AB  24085.95169964 -.00006701  00000-0 -40365-3 0  9992,2 52855  53.2183 348.2113 0001406  87.5580 272.5573 15.08812320 98171,6917.965,95.439,540.803,538.857,0.0
52855.0,STARLINK-4209,PAYLOAD,2024-03-26 09:58:09,15.08827704,0.0001371,53.2185,346.1324,82.2683,277.8465,0.00024147,3.556e-05,0.0,0 STARLINK-4209,1 52855U 22062AB  24086.41538724  .00003556  00000-0  24147-3 0  9991,2 52855  53.2185 346.1324 0001371  82.2683 277.8465 15.08827704 98733,6917.918,95.438,540.731,538.835,0.0
52855.0,STARLINK-4209,PAYLOAD,2024-03-26 22:41:15,15.08841729,0.000124,53.2175,343.7535,76.8409,283.2721,0.0010245,0.00016055,0.0,0 STARLINK-4209,1 52855U 22062AB  24086.94531294  .00016055  00000-0  10245-2 0  9995,2 52855  53.2175 343.7535 0001240  76.8409 283.2721 15.08841729 98323,6917.875,95.437,540.598,538.882,0.0
52855.0,STARLINK-4209,PAYLOAD,2024-03-27 00:16:38,15.08852382,0.0001188,53.2175,343.4571,76.0939,284.0186,0.0012862,0.00020248,0.0,0 STARLINK-4209,1 52855U 22062AB  24087.01155163  .00020248  00000-0  12862-2 0  9997,2 52855  53.2175 343.4571 0001188  76.0939 284.0186 15.08852382 98827,6917.843,95.437,540.529,538.886,0.0
52855.0,STARLINK-4209,PAYLOAD,2024-03-27 09:48:55,15.08885963,0.0001219,53.2175,341.6728,77.0087,283.1041,0.0016632,0.00026314,0.0,0 STARLINK-4209,1 52855U 22062AB  24087.40898080  .00026314  00000-0  16632-2 0  9991,2 52855  53.2175 341.6728 0001219  77.0087 283.1041 15.08885963 98888,6917.74,95.435,540.448,538.762,0.0
52855.0,STARLINK-4209,PAYLOAD,2024-03-27 20:56:38,15.08837195,0.0001293,53.217,339.5915,93.4245,266.6895,0.00055341,8.53e-05,0.0,0 STARLINK-4209,1 52855U 22062AB  24087.87266639  .00008530  00000-0  55341-3 0  9992,2 52855  53.2170 339.5915 0001293  93.4245 266.6895 15.08837195 98952,6917.889,95.438,540.648,538.859,0.0
52855.0,STARLINK-4209,PAYLOAD,2024-03-27 22:32:01,15.08836577,0.0001567,53.2173,339.2943,88.1614,271.9558,0.00080169,0.00012493,0.0,0 STARLINK-4209,1 52855U 22062AB  24087.93890742  .00012493  00000-0  80169-3 0  9996,2 52855  53.2173 339.2943 0001567  88.1614 271.9558 15.08836577 98473,6917.891,95.438,540.84,538.672,0.0
52855.0,STARLINK-4209,PAYLOAD,2024-03-28 03:18:10,15.08843253,0.0001456,53.2169,338.4021,92.0424,268.0734,0.0016065,0.00025374,0.0,0 STARLINK-4209,1 52855U 22062AB  24088.13762707  .00025374  00000-0  16065-2 0  9993,2 52855  53.2169 338.4021 0001456  92.0424 268.0734 15.08843253 98502,6917.87,95.437,540.743,538.728,0.0
52855.0,STARLINK-4209,PAYLOAD,2024-03-28 22:22:48,15.08854578,0.0001488,53.2159,334.8307,132.5006,227.6112,0.00093914,0.00014696,0.0,0 STARLINK-4209,1 52855U 22062AB  24088.93250227  .00014696  00000-0  93914-3 0  9994,2 52855  53.2159 334.8307 0001488 132.5006 227.6112 15.08854578 98625,6917.836,95.437,540.73,538.671,0.0
